[{"OBJECT_NAME":"STARLINK-4689","OBJECT_ID":"2022-104C","EPOCH":"2026-03-09T21:36:07.783776","MEAN_MOTION":15.08840101,"ECCENTRICITY":0.00013714,"INCLINATION":53.2176,"RA_OF_ASC_NODE":243.3854,"ARG_OF_PERICENTER":107.4665,"MEAN_ANOMALY":252.6477,"EPHEMERIS_TYPE":0,"CLASSIFICATION_TYPE":"U","NORAD_CAT_ID":53590,"ELEMENT_SET_NO":999,"REV_AT_EPOCH":19599,"BSTAR":2.739638e-6,"MEAN_MOTION_DOT":-2.44e-6,"MEAN_MOTION_DDOT":0},{"OBJECT_NAME":"MINOTAUR 4 R\/B","OBJECT_ID":"2020-046E","EPOCH":"2026-03-09T23:21:28.488960","MEAN_MOTION":15.06543892,"ECCENTRICITY":0.00095926,"INCLINATION":53.9792,"RA_OF_ASC_NODE":306.0413,"ARG_OF_PERICENTER":86.078,"MEAN_ANOMALY":274.1318,"EPHEMERIS_TYPE":0,"CLASSIFICATION_TYPE":"U","NORAD_CAT_ID":45877,"ELEMENT_SET_NO":999,"REV_AT_EPOCH":23396,"BSTAR":0.00016618262,"MEAN_MOTION_DOT":2.204e-5,"MEAN_MOTION_DDOT":0}]
